FLOCK 4G-10             
1 62670U 25009BP  26068.70827885  .00013952  00000+0  52624-3 0  9995
2 62670  97.3967 150.5883 0003469 341.4844  18.6269 15.27155944121340
STARLINK-35646          
1 66859U 25281M   26068.09242339  .00042308  00000+0  15374-2 0  9994
2 66859  43.0034 346.8924 0001953 259.9846 100.0785 15.27595831 16090
